NORAD_CAT_ID,OBJECT_NAME,OBJECT_TYPE,EPOCH,MEAN_MOTION,ECCENTRICITY,INCLINATION,RA_OF_ASC_NODE,ARG_OF_PERICENTER,MEAN_ANOMALY,BSTAR,MEAN_MOTION_DOT,MEAN_MOTION_DDOT,TLE_LINE0,TLE_LINE1,TLE_LINE2,SEMIMAJOR_AXIS,PERIOD,APOGEE,PERIGEE,DECAYED
56460.0,STARLINK-6047,PAYLOAD,2023-09-13 11:04:41,14.98334474,0.0003375,69.9988,274.3587,270.1172,89.9601,5.3307e-05,5.43e-06,0.0,0 STARLINK-6047,1 56460U 23064N   23256.46159359  .00000543  00000-0  53307-4 0  9990,2 56460  69.9988 274.3587 0003375 270.1172  89.9601 14.98334474 19208,6950.179,96.107,574.39,569.698,0.0
56460.0,STARLINK-6047,PAYLOAD,2023-09-13 19:05:22,14.98329648,0.0003238,69.9994,273.517,273.4699,86.609,3.6072e-05,3.37e-06,0.0,0 STARLINK-6047,1 56460U 23064N   23256.79539736  .00000337  00000-0  36072-4 0  9998,2 56460  69.9994 273.5170 0003238 273.4699  86.6090 14.98329648 19250,6950.194,96.107,574.309,569.809,0.0
56460.0,STARLINK-6047,PAYLOAD,2023-09-14 03:06:02,14.98324712,0.0003333,70.0002,272.6761,272.5451,87.5327,-6.064e-06,-1.65e-06,0.0,0 STARLINK-6047,1 56460U 23064N   23257.12920133 -.00000165  00000-0 -60640-5 0  9991,2 56460  70.0002 272.6761 0003333 272.5451  87.5327 14.98324712 19666,6950.209,96.107,574.391,569.758,0.0
56460.0,STARLINK-6047,PAYLOAD,2023-09-14 11:06:43,14.98325384,0.0003198,70.0,271.8346,270.3513,89.7279,-5.8955e-05,-7.96e-06,0.0,0 STARLINK-6047,1 56460U 23064N   23257.46300323 -.00000796  00000-0 -58955-4 0  9996,2 56460  70.0000 271.8346 0003198 270.3513  89.7279 14.98325384 19350,6950.207,96.107,574.295,569.849,0.0
56460.0,STARLINK-6047,PAYLOAD,2023-09-15 09:32:36,14.98329878,0.000312,69.9997,269.4776,265.0252,95.0551,-1.5202e-05,-2.74e-06,0.0,0 STARLINK-6047,1 56460U 23064N   23258.39763997 -.00000274  00000-0 -15202-4 0  9998,2 56460  69.9997 269.4776 0003120 265.0252  95.0551 14.98329878 19858,6950.193,96.107,574.227,569.89,0.0
56460.0,STARLINK-6047,PAYLOAD,2023-09-16 09:34:36,14.98328727,0.0003119,70.0008,266.9544,264.7135,95.3668,8.5126e-05,9.23e-06,0.0,0 STARLINK-6047,1 56460U 23064N   23259.39903732  .00000923  00000-0  85126-4 0  9993,2 56460  70.0008 266.9544 0003119 264.7135  95.3668 14.98328727 20006,6950.197,96.107,574.23,569.894,0.0
56460.0,STARLINK-6047,PAYLOAD,2023-09-16 11:10:43,14.98381288,0.0002784,70.0005,266.7846,258.8846,101.2,-0.00082061,-9.883e-05,0.0,0 STARLINK-6047,1 56460U 23064N   23259.46578469 -.00009883  00000-0 -82061-3 0  9996,2 56460  70.0005 266.7846 0002784 258.8846 101.2000 14.98381288 19653,6950.034,96.104,573.834,569.964,0.0
56460.0,STARLINK-6047,PAYLOAD,2023-09-17 01:35:57,14.98331975,0.0003117,70.0002,265.27,263.5023,96.5781,5.8408e-05,6.04e-06,0.0,0 STARLINK-6047,1 56460U 23064N   23260.06663482  .00000604  00000-0  58408-4 0  9993,2 56460  70.0002 265.2700 0003117 263.5023  96.5781 14.98331975 20106,6950.187,96.107,574.218,569.885,0.0
56460.0,STARLINK-6047,PAYLOAD,2023-09-17 09:36:37,14.98332146,0.000328,70.0002,264.4287,266.7323,93.3461,4.1269e-05,3.99e-06,0.0,0 STARLINK-6047,1 56460U 23064N   23260.40043464  .00000399  00000-0  41269-4 0  9991,2 56460  70.0002 264.4287 0003280 266.7323  93.3461 14.98332146 19790,6950.186,96.107,574.331,569.772,0.0
56460.0,STARLINK-6047,PAYLOAD,2023-09-18 01:37:58,14.98329492,0.0003253,70.0003,262.7453,269.0455,91.0331,-8.263e-05,-1.079e-05,0.0,0 STARLINK-6047,1 56460U 23064N   23261.06803932 -.00001079  00000-0 -82630-4 0  9993,2 56460  70.0003 262.7453 0003253 269.0455  91.0331 14.98329492 20253,6950.194,96.107,574.32,569.799,0.0
56460.0,STARLINK-6047,PAYLOAD,2023-09-18 09:38:38,14.98328557,0.000304,70.0004,261.9035,262.7584,97.323,-8.2298e-05,-1.075e-05,0.0,0 STARLINK-6047,1 56460U 23064N   23261.40183982 -.00001075  00000-0 -82298-4 0  9993,2 56460  70.0004 261.9035 0003040 262.7584  97.3230 14.98328557 19940,6950.197,96.107,574.175,569.949,0.0
56460.0,STARLINK-6047,PAYLOAD,2023-09-18 17:39:19,14.98328724,0.0003365,70.0,261.0609,268.8502,91.2272,-1.0632e-05,-2.2e-06,0.0,0 STARLINK-6047,1 56460U 23064N   23261.73563779 -.00000220  00000-0 -10632-4 0  9999,2 56460  70.0000 261.0609 0003365 268.8502  91.2272 14.98328724 19991,6950.197,96.107,574.401,569.723,0.0
56460.0,STARLINK-6047,PAYLOAD,2023-09-19 01:39:59,14.98332742,0.0003369,70.0,260.2199,270.9179,89.1594,8.8582e-06,1.3e-07,0.0,0 STARLINK-6047,1 56460U 23064N   23262.06943416  .00000013  00000-0  88582-5 0  9994,2 56460  70.0000 260.2199 0003369 270.9179  89.1594 14.98332742 20400,6950.184,96.107,574.391,569.708,0.0
56460.0,STARLINK-6047,PAYLOAD,2023-09-20 01:42:00,14.98324915,0.0003361,70.0001,257.6948,270.0523,90.0251,4.1239e-05,3.99e-06,0.0,0 STARLINK-6047,1 56460U 23064N   23263.07083678  .00000399  00000-0  41239-4 0  9995,2 56460  70.0001 257.6948 0003361 270.0523  90.0251 14.98324915 20559,6950.209,96.107,574.41,569.738,0.0
56460.0,STARLINK-6047,PAYLOAD,2023-09-20 09:42:40,14.98328798,0.0003162,70.0001,256.8532,267.0284,93.0513,3.7381e-05,3.53e-06,0.0,0 STARLINK-6047,1 56460U 23064N   23263.40463507  .00000353  00000-0  37381-4 0  9998,2 56460  70.0001 256.8532 0003162 267.0284  93.0513 14.98328798 20241,6950.197,96.107,574.259,569.864,0.0
56460.0,STARLINK-6047,PAYLOAD,2023-09-21 01:44:01,14.98330344,0.0003229,70.0004,255.17,270.5678,89.5111,-3.8878e-05,-5.57e-06,0.0,0 STARLINK-6047,1 56460U 23064N   23264.07223659 -.00000557  00000-0 -38878-4 0  9994,2 56460  70.0004 255.1700 0003229 270.5678  89.5111 14.98330344 20708,6950.192,96.107,574.301,569.813,0.0
56460.0,STARLINK-6047,PAYLOAD,2023-09-21 09:44:41,14.98329868,0.0003086,70.0003,254.3288,264.9634,95.1173,-1.2423e-05,-2.41e-06,0.0,0 STARLINK-6047,1 56460U 23064N   23264.40603593 -.00000241  00000-0 -12423-4 0  9998,2 56460  70.0003 254.3288 0003086 264.9634  95.1173 14.98329868 20394,6950.193,96.107,574.203,569.913,0.0
56460.0,STARLINK-6047,PAYLOAD,2023-09-21 16:09:13,14.98335875,0.0003249,70.0003,253.6553,268.0577,92.021,-9.2907e-05,-1.202e-05,0.0,0 STARLINK-6047,1 56460U 23064N   23264.67307372 -.00001202  00000-0 -92907-4 0  9996,2 56460  70.0003 253.6553 0003249 268.0577  92.0210 14.98335875 20431,6950.175,96.107,574.298,569.782,0.0
56460.0,STARLINK-6047,PAYLOAD,2023-09-22 04:58:17,14.98333867,0.0003003,70.0008,252.3093,265.2984,94.7832,-4.0728e-06,-1.42e-06,0.0,0 STARLINK-6047,1 56460U 23064N   23265.20715252 -.00000142  00000-0 -40728-5 0  9993,2 56460  70.0008 252.3093 0003003 265.2984  94.7832 14.98333867 20876,6950.181,96.107,574.133,569.959,0.0
56460.0,STARLINK-6047,PAYLOAD,2023-09-22 08:10:33,14.98361201,0.0003195,70.0009,251.973,266.6929,93.3865,-0.00048592,-5.891e-05,0.0,0 STARLINK-6047,1 56460U 23064N   23265.34066569 -.00005891  00000-0 -48592-3 0  9999,2 56460  70.0009 251.9730 0003195 266.6929  93.3865 14.98361201 20892,6950.096,96.105,574.182,569.741,0.0
56460.0,STARLINK-6047,PAYLOAD,2023-09-22 16:11:14,14.98326207,0.0002926,70.0011,251.1303,267.7986,92.2838,8.8597e-05,9.64e-06,0.0,0 STARLINK-6047,1 56460U 23064N   23265.67447510  .00000964  00000-0  88597-4 0  9998,2 56460  70.0011 251.1303 0002926 267.7986  92.2838 14.98326207 20940,6950.205,96.107,574.103,570.036,0.0
56460.0,STARLINK-6047,PAYLOAD,2023-09-23 08:12:34,14.98331219,0.0003156,70.0004,249.4472,267.7584,92.3213,5.4704e-05,5.6e-06,0.0,0 STARLINK-6047,1 56460U 23064N   23266.34207173  .00000560  00000-0  54704-4 0  9997,2 56460  70.0004 249.4472 0003156 267.7584  92.3213 14.98331219 20687,6950.189,96.107,574.248,569.861,0.0
56460.0,STARLINK-6047,PAYLOAD,2023-09-23 16:13:15,14.9833037,0.000314,70.0005,248.6058,268.5354,91.5445,1.8101e-06,-7.1e-07,0.0,0 STARLINK-6047,1 56460U 23064N   23266.67587331 -.00000071  00000-0  18101-5 0  9990,2 56460  70.0005 248.6058 0003140 268.5354  91.5445 14.98330370 21097,6950.192,96.107,574.239,569.874,0.0
56460.0,STARLINK-6047,PAYLOAD,2023-09-24 08:14:36,14.98328781,0.0003096,70.0005,246.9228,266.036,94.0445,-1.6073e-05,-2.85e-06,0.0,0 STARLINK-6047,1 56460U 23064N   23267.34347526 -.00000285  00000-0 -16073-4 0  9998,2 56460  70.0005 246.9228 0003096 266.0360  94.0445 14.98328781 20839,6950.197,96.107,574.213,569.91,0.0
56460.0,STARLINK-6047,PAYLOAD,2023-09-25 01:52:04,14.983309,0.0003098,70.0005,245.0713,269.7834,90.297,-9.0673e-06,-2.01e-06,0.0,0 STARLINK-6047,1 56460U 23064N   23268.07783354 -.00000201  00000-0 -90673-5 0  9999,2 56460  70.0005 245.0713 0003098 269.7834  90.2970 14.98330900 21306,6950.19,96.107,574.208,569.902,0.0
56460.0,STARLINK-6047,PAYLOAD,2023-09-25 08:16:37,14.98299242,0.0002802,70.0007,244.3985,268.9646,91.1192,0.00067279,7.937e-05,0.0,0 STARLINK-6047,1 56460U 23064N   23268.34487649  .00007937  00000-0  67279-3 0  9992,2 56460  70.0007 244.3985 0002802 268.9646  91.1192 14.98299242 21348,6950.288,96.109,574.1,570.206,0.0
56460.0,STARLINK-6047,PAYLOAD,2023-09-25 16:17:16,14.98334672,0.0003094,70.0008,243.555,270.1222,89.9583,4.0621e-05,3.92e-06,0.0,0 STARLINK-6047,1 56460U 23064N   23268.67866812  .00000392  00000-0  40621-4 0  9992,2 56460  70.0008 243.5550 0003094 270.1222  89.9583 14.98334672 21398,6950.178,96.107,574.194,569.893,0.0
56460.0,STARLINK-6047,PAYLOAD,2023-09-25 21:05:41,14.98331328,0.0003054,70.0007,243.0501,269.8534,90.2275,9.9668e-05,1.096e-05,0.0,0 STARLINK-6047,1 56460U 23064N   23268.87894815  .00001096  00000-0  99668-4 0  9995,2 56460  70.0007 243.0501 0003054 269.8534  90.2275 14.98331328 21067,6950.189,96.107,574.176,569.931,0.0
56460.0,STARLINK-6047,PAYLOAD,2023-09-26 08:18:37,14.98334866,0.0002998,70.0005,241.8719,267.5677,92.5139,8.8929e-05,9.68e-06,0.0,0 STARLINK-6047,1 56460U 23064N   23269.34626519  .00000968  00000-0  88929-4 0  9997,2 56460  70.0005 241.8719 0002998 267.5677  92.5139 14.98334866 21133,6950.178,96.107,574.127,569.959,0.0
56460.0,STARLINK-6047,PAYLOAD,2023-09-27 01:56:06,14.98326975,0.0003073,70.0,240.0206,269.4767,90.6039,-6.5098e-05,-8.7e-06,0.0,0 STARLINK-6047,1 56460U 23064N   23270.08063426 -.00000870  00000-0 -65098-4 0  9998,2 56460  70.0000 240.0206 0003073 269.4767  90.6039 14.98326975 21608,6950.202,96.107,574.203,569.931,0.0
